LANDSAT 8               
1 39084U 13008A   26066.18831171  .00000450  00000+0  10986-3 0  9991
2 39084  98.1922 137.9549 0001215  92.0331 268.1006 14.57127918683041
SARAL                   
1 39086U 13009A   26066.15700051  .00000147  00000+0  70093-4 0  9992
2 39086  98.5553 254.0048 0001332 188.4956 171.6206 14.32827414680997
GAOFEN-1                
1 39150U 13018A   26066.20849060  .00000344  00000+0  56533-4 0  9996
2 39150  97.9180 140.3129 0016255 232.9261 127.0464 14.76539637693191
VNREDSAT 1              
1 39160U 13021B   26066.17753017  .00000509  00000+0  10334-3 0  9994
2 39160  97.9217 123.4402 0001609  89.0157 271.1231 14.65068324685351
ARIRANG-5 (KOMPSAT-5)   
1 39227U 13042A   26066.14224826  .00001750  00000+0  12926-3 0  9997
2 39227  97.6181 254.2603 0003828 118.9408 241.2202 15.04530664688516
SKYSAT-A                
1 39418U 13066C   26066.12125917  .00003401  00000+0  19903-3 0  9991
2 39418  97.3955 118.7442 0020316 310.1034  49.8416 15.12328643673054
DUBAISAT-2              
1 39419U 13066D   26066.13770490  .00006400  00000+0  40441-3 0  9998
2 39419  97.4527  59.0418 0012399  31.9829 328.2150 15.09320130670991
GPM-CORE                
1 39574U 14009C   26066.18523806  .00008799  00000+0  19248-3 0  9994
2 39574  64.9726 289.8770 0012412 265.3189  94.6534 15.44662642682051
SENTINEL-1A             
1 39634U 14016A   26066.19608925  .00000282  00000+0  69520-4 0  9994
2 39634  98.1816  75.2020 0001362  83.7903 276.3452 14.59198641635144
KAZEOSAT 1              
1 39731U 14024A   26066.16354068  .00000176  00000+0  66511-4 0  9993
2 39731  98.3288 141.1182 0001052  83.1839 276.9471 14.42033813623850
ALOS-2                  
1 39766U 14029A   26066.21645155  .00002240  00000+0  30662-3 0  9993
2 39766  97.9197 164.8492 0001441  97.0904 263.0472 14.79490574636502
KAZEOSAT 2              
1 40010U 14033A   26066.17473711  .00000721  00000+0  89715-4 0  9990
2 40010  97.5480 271.1275 0007415 302.6871  57.3630 14.85330623633819
HODOYOSHI-4             
1 40011U 14033B   26066.15617988  .00001419  00000+0  16029-3 0  9997
2 40011  97.5447 255.9112 0022249 285.1235  74.7521 14.87832516633636
DEIMOS-2                
1 40013U 14033D   26066.21663977  .00002321  00000+0  22622-3 0  9994
2 40013  97.5982 304.2193 0001366  58.1045 302.0308 14.93398477622507
HODOYOSHI-3             
1 40015U 14033F   26066.05300201  .00001639  00000+0  19593-3 0  9990
2 40015  97.6296 233.2789 0032300 333.1530  26.8012 14.85128057632462
SPOT 7                  
1 40053U 14034A   26066.19813637  .00000390  00000+0  89040-4 0  9998
2 40053  98.0748 131.2720 0001324 100.9849 259.1501 14.60857065622248
SKYSAT-B                
1 40072U 14037D   26065.83746155  .00002430  00000+0  27336-3 0  9998
2 40072  98.3725  19.0618 0004259 245.2910 114.7861 14.87713289630745
