[{"OBJECT_NAME":"LANDSAT 8","OBJECT_ID":"2013-008A","EPOCH":"2026-03-07T04:31:10.131744","MEAN_MOTION":14.57127918,"ECCENTRICITY":0.0001215,"INCLINATION":98.1922,"RA_OF_ASC_NODE":137.9549,"ARG_OF_PERICENTER":92.0331,"MEAN_ANOMALY":268.1006,"EPHEMERIS_TYPE":0,"CLASSIFICATION_TYPE":"U","NORAD_CAT_ID":39084,"ELEMENT_SET_NO":999,"REV_AT_EPOCH":68304,"BSTAR":0.00010986,"MEAN_MOTION_DOT":4.5e-6,"MEAN_MOTION_DDOT":0},{"OBJECT_NAME":"SARAL","OBJECT_ID":"2013-009A","EPOCH":"2026-03-07T03:46:04.844064","MEAN_MOTION":14.32827414,"ECCENTRICITY":0.0001332,"INCLINATION":98.5553,"RA_OF_ASC_NODE":254.0048,"ARG_OF_PERICENTER":188.4956,"MEAN_ANOMALY":171.6206,"EPHEMERIS_TYPE":0,"CLASSIFICATION_TYPE":"U","NORAD_CAT_ID":39086,"ELEMENT_SET_NO":999,"REV_AT_EPOCH":68099,"BSTAR":7.0093e-5,"MEAN_MOTION_DOT":1.47e-6,"MEAN_MOTION_DDOT":0},{"OBJECT_NAME":"GAOFEN-1","OBJECT_ID":"2013-018A","EPOCH":"2026-03-07T05:00:13.587840","MEAN_MOTION":14.76539637,"ECCENTRICITY":0.0016255,"INCLINATION":97.918,"RA_OF_ASC_NODE":140.3129,"ARG_OF_PERICENTER":232.9261,"MEAN_ANOMALY":127.0464,"EPHEMERIS_TYPE":0,"CLASSIFICATION_TYPE":"U","NORAD_CAT_ID":39150,"ELEMENT_SET_NO":999,"REV_AT_EPOCH":69319,"BSTAR":5.6533e-5,"MEAN_MOTION_DOT":3.44e-6,"MEAN_MOTION_DDOT":0},{"OBJECT_NAME":"VNREDSAT 1","OBJECT_ID":"2013-021B","EPOCH":"2026-03-07T04:15:38.606688","MEAN_MOTION":14.65068324,"ECCENTRICITY":0.0001609,"INCLINATION":97.9217,"RA_OF_ASC_NODE":123.4402,"ARG_OF_PERICENTER":89.0157,"MEAN_ANOMALY":271.1231,"EPHEMERIS_TYPE":0,"CLASSIFICATION_TYPE":"U","NORAD_CAT_ID":39160,"ELEMENT_SET_NO":999,"REV_AT_EPOCH":68535,"BSTAR":0.00010334,"MEAN_MOTION_DOT":5.09e-6,"MEAN_MOTION_DDOT":0},{"OBJECT_NAME":"ARIRANG-5 (KOMPSAT-5)","OBJECT_ID":"2013-042A","EPOCH":"2026-03-07T03:24:50.249664","MEAN_MOTION":15.04530664,"ECCENTRICITY":0.0003828,"INCLINATION":97.6181,"RA_OF_ASC_NODE":254.2603,"ARG_OF_PERICENTER":118.9408,"MEAN_ANOMALY":241.2202,"EPHEMERIS_TYPE":0,"CLASSIFICATION_TYPE":"U","NORAD_CAT_ID":39227,"ELEMENT_SET_NO":999,"REV_AT_EPOCH":68851,"BSTAR":0.00012926,"MEAN_MOTION_DOT":1.75e-5,"MEAN_MOTION_DDOT":0},{"OBJECT_NAME":"SKYSAT-A","OBJECT_ID":"2013-066C","EPOCH":"2026-03-07T02:54:36.792288","MEAN_MOTION":15.12328643,"ECCENTRICITY":0.0020316,"INCLINATION":97.3955,"RA_OF_ASC_NODE":118.7442,"ARG_OF_PERICENTER":310.1034,"MEAN_ANOMALY":49.8416,"EPHEMERIS_TYPE":0,"CLASSIFICATION_TYPE":"U","NORAD_CAT_ID":39418,"ELEMENT_SET_NO":999,"REV_AT_EPOCH":67305,"BSTAR":0.00019903,"MEAN_MOTION_DOT":3.401e-5,"MEAN_MOTION_DDOT":0},{"OBJECT_NAME":"DUBAISAT-2","OBJECT_ID":"2013-066D","EPOCH":"2026-03-07T03:18:17.703360","MEAN_MOTION":15.0932013,"ECCENTRICITY":0.0012399,"INCLINATION":97.4527,"RA_OF_ASC_NODE":59.0418,"ARG_OF_PERICENTER":31.9829,"MEAN_ANOMALY":328.215,"EPHEMERIS_TYPE":0,"CLASSIFICATION_TYPE":"U","NORAD_CAT_ID":39419,"ELEMENT_SET_NO":999,"REV_AT_EPOCH":67099,"BSTAR":0.00040441,"MEAN_MOTION_DOT":6.4e-5,"MEAN_MOTION_DDOT":0},{"OBJECT_NAME":"GPM-CORE","OBJECT_ID":"2014-009C","EPOCH":"2026-03-07T04:26:44.568384","MEAN_MOTION":15.44662642,"ECCENTRICITY":0.0012412,"INCLINATION":64.9726,"RA_OF_ASC_NODE":289.877,"ARG_OF_PERICENTER":265.3189,"MEAN_ANOMALY":94.6534,"EPHEMERIS_TYPE":0,"CLASSIFICATION_TYPE":"U","NORAD_CAT_ID":39574,"ELEMENT_SET_NO":999,"REV_AT_EPOCH":68205,"BSTAR":0.00019248,"MEAN_MOTION_DOT":8.799e-5,"MEAN_MOTION_DDOT":0},{"OBJECT_NAME":"SENTINEL-1A","OBJECT_ID":"2014-016A","EPOCH":"2026-03-07T04:42:22.111200","MEAN_MOTION":14.59198641,"ECCENTRICITY":0.0001362,"INCLINATION":98.1816,"RA_OF_ASC_NODE":75.202,"ARG_OF_PERICENTER":83.7903,"MEAN_ANOMALY":276.3452,"EPHEMERIS_TYPE":0,"CLASSIFICATION_TYPE":"U","NORAD_CAT_ID":39634,"ELEMENT_SET_NO":999,"REV_AT_EPOCH":63514,"BSTAR":6.952e-5,"MEAN_MOTION_DOT":2.82e-6,"MEAN_MOTION_DDOT":0},{"OBJECT_NAME":"KAZEOSAT 1","OBJECT_ID":"2014-024A","EPOCH":"2026-03-07T03:55:29.914752","MEAN_MOTION":14.42033813,"ECCENTRICITY":0.0001052,"INCLINATION":98.3288,"RA_OF_ASC_NODE":141.1182,"ARG_OF_PERICENTER":83.1839,"MEAN_ANOMALY":276.9471,"EPHEMERIS_TYPE":0,"CLASSIFICATION_TYPE":"U","NORAD_CAT_ID":39731,"ELEMENT_SET_NO":999,"REV_AT_EPOCH":62385,"BSTAR":6.6511e-5,"MEAN_MOTION_DOT":1.76e-6,"MEAN_MOTION_DDOT":0},{"OBJECT_NAME":"ALOS-2","OBJECT_ID":"2014-029A","EPOCH":"2026-03-07T05:11:41.413920","MEAN_MOTION":14.79490574,"ECCENTRICITY":0.0001441,"INCLINATION":97.9197,"RA_OF_ASC_NODE":164.8492,"ARG_OF_PERICENTER":97.0904,"MEAN_ANOMALY":263.0472,"EPHEMERIS_TYPE":0,"CLASSIFICATION_TYPE":"U","NORAD_CAT_ID":39766,"ELEMENT_SET_NO":999,"REV_AT_EPOCH":63650,"BSTAR":0.00030662,"MEAN_MOTION_DOT":2.24e-5,"MEAN_MOTION_DDOT":0},{"OBJECT_NAME":"KAZEOSAT 2","OBJECT_ID":"2014-033A","EPOCH":"2026-03-07T04:11:37.286304","MEAN_MOTION":14.85330623,"ECCENTRICITY":0.0007415,"INCLINATION":97.548,"RA_OF_ASC_NODE":271.1275,"ARG_OF_PERICENTER":302.6871,"MEAN_ANOMALY":57.363,"EPHEMERIS_TYPE":0,"CLASSIFICATION_TYPE":"U","NORAD_CAT_ID":40010,"ELEMENT_SET_NO":999,"REV_AT_EPOCH":63381,"BSTAR":8.9715e-5,"MEAN_MOTION_DOT":7.21e-6,"MEAN_MOTION_DDOT":0},{"OBJECT_NAME":"HODOYOSHI-4","OBJECT_ID":"2014-033B","EPOCH":"2026-03-07T03:44:53.941632","MEAN_MOTION":14.87832516,"ECCENTRICITY":0.0022249,"INCLINATION":97.5447,"RA_OF_ASC_NODE":255.9112,"ARG_OF_PERICENTER":285.1235,"MEAN_ANOMALY":74.7521,"EPHEMERIS_TYPE":0,"CLASSIFICATION_TYPE":"U","NORAD_CAT_ID":40011,"ELEMENT_SET_NO":999,"REV_AT_EPOCH":63363,"BSTAR":0.00016029,"MEAN_MOTION_DOT":1.419e-5,"MEAN_MOTION_DDOT":0},{"OBJECT_NAME":"DEIMOS-2","OBJECT_ID":"2014-033D","EPOCH":"2026-03-07T05:11:57.676128","MEAN_MOTION":14.93398477,"ECCENTRICITY":0.0001366,"INCLINATION":97.5982,"RA_OF_ASC_NODE":304.2193,"ARG_OF_PERICENTER":58.1045,"MEAN_ANOMALY":302.0308,"EPHEMERIS_TYPE":0,"CLASSIFICATION_TYPE":"U","NORAD_CAT_ID":40013,"ELEMENT_SET_NO":999,"REV_AT_EPOCH":62250,"BSTAR":0.00022622,"MEAN_MOTION_DOT":2.321e-5,"MEAN_MOTION_DDOT":0},{"OBJECT_NAME":"HODOYOSHI-3","OBJECT_ID":"2014-033F","EPOCH":"2026-03-07T01:16:19.373664","MEAN_MOTION":14.85128057,"ECCENTRICITY":0.00323,"INCLINATION":97.6296,"RA_OF_ASC_NODE":233.2789,"ARG_OF_PERICENTER":333.153,"MEAN_ANOMALY":26.8012,"EPHEMERIS_TYPE":0,"CLASSIFICATION_TYPE":"U","NORAD_CAT_ID":40015,"ELEMENT_SET_NO":999,"REV_AT_EPOCH":63246,"BSTAR":0.00019593,"MEAN_MOTION_DOT":1.639e-5,"MEAN_MOTION_DDOT":0},{"OBJECT_NAME":"SPOT 7","OBJECT_ID":"2014-034A","EPOCH":"2026-03-07T04:45:18.982368","MEAN_MOTION":14.60857065,"ECCENTRICITY":0.0001324,"INCLINATION":98.0748,"RA_OF_ASC_NODE":131.272,"ARG_OF_PERICENTER":100.9849,"MEAN_ANOMALY":259.1501,"EPHEMERIS_TYPE":0,"CLASSIFICATION_TYPE":"U","NORAD_CAT_ID":40053,"ELEMENT_SET_NO":999,"REV_AT_EPOCH":62224,"BSTAR":8.904e-5,"MEAN_MOTION_DOT":3.9e-6,"MEAN_MOTION_DDOT":0},{"OBJECT_NAME":"SKYSAT-B","OBJECT_ID":"2014-037D","EPOCH":"2026-03-06T20:05:56.677920","MEAN_MOTION":14.87713289,"ECCENTRICITY":0.0004259,"INCLINATION":98.3725,"RA_OF_ASC_NODE":19.0618,"ARG_OF_PERICENTER":245.291,"MEAN_ANOMALY":114.7861,"EPHEMERIS_TYPE":0,"CLASSIFICATION_TYPE":"U","NORAD_CAT_ID":40072,"ELEMENT_SET_NO":999,"REV_AT_EPOCH":63074,"BSTAR":0.00027336,"MEAN_MOTION_DOT":2.43e-5,"MEAN_MOTION_DDOT":0}]
